
# Worst residual: 12.60 km
# MJD 57902.000000 (2017 May 29  0:00)
S510923
1 99999U 00000    17149.49919926  .00000000  00000-0  00000-0 0    09
2 99999 037.7842 352.0752 0359602 329.4667 274.5685 00.18700871    03

# Worst residual: 6.64 km
# MJD 57903.000000 (2017 May 30  0:00)
S510923
1 99999U 00000    17150.49919926  .00000000  00000-0  00000-0 0    01
2 99999 037.7812 352.0661 0368771 328.6406 342.6860 00.18671559    00

# Worst residual: 10.68 km
# MJD 57904.000000 (2017 May 31  0:00)
S510923
1 99999U 00000    17151.49919926  .00000000  00000-0  00000-0 0    02
2 99999 037.7760 352.0523 0361368 329.7285 048.9196 00.18687665    04

# Worst residual: 12.92 km
# MJD 57905.000000 (2017 Jun  1  0:00)
S510923
1 99999U 00000    17152.49919926  .00000000  00000-0  00000-0 0    03
2 99999 037.7746 352.0393 0348207 329.0769 116.9997 00.18705974    09

# Worst residual: 11.72 km
# MJD 57906.000000 (2017 Jun  2  0:00)
S510923
1 99999U 00000    17153.49919926  .00000000  00000-0  00000-0 0    04
2 99999 037.7695 352.0294 0331668 327.9388 185.5620 00.18678990    01

# Worst residual: 8.09 km
# MJD 57907.000000 (2017 Jun  3  0:00)
S510923
1 99999U 00000    17154.49919926  .00000000  00000-0  00000-0 0    05
2 99999 037.7530 352.0122 0324948 327.8819 252.7794 00.18663910    05

# Worst residual: 13.44 km
# MJD 57908.000000 (2017 Jun  4  0:00)
S510923
1 99999U 00000    17155.49919926  .00000000  00000-0  00000-0 0    06
2 99999 037.7485 351.9944 0333249 330.5836 317.4388 00.18701014    04

# Worst residual: 13.04 km
# MJD 57909.000000 (2017 Jun  5  0:00)
S510923
1 99999U 00000    17156.49919926  .00000000  00000-0  00000-0 0    07
2 99999 037.7456 351.9808 0340229 333.0330 022.4452 00.18691673    08

# Worst residual: 5.69 km
# MJD 57910.000000 (2017 Jun  6  0:00)
S510923
1 99999U 00000    17157.49919926  .00000000  00000-0  00000-0 0    08
2 99999 037.7497 351.9714 0339907 335.1026 087.6758 00.18665438    07

# Worst residual: 14.72 km
# MJD 57911.000000 (2017 Jun  7  0:00)
S510923
1 99999U 00000    17158.49919926  .00000000  00000-0  00000-0 0    09
2 99999 037.7472 351.9640 0339906 333.1214 156.9579 00.18694815    06

# Worst residual: 18.22 km
# MJD 57912.000000 (2017 Jun  8  0:00)
S510923
1 99999U 00000    17159.49919926  .00000000  00000-0  00000-0 0    00
2 99999 037.7473 351.9467 0346914 330.0538 227.5604 00.18705068    03

# Worst residual: 6.05 km
# MJD 57913.000000 (2017 Jun  9  0:00)
S510923
1 99999U 00000    17160.49919926  .00000000  00000-0  00000-0 0    02
2 99999 037.7395 351.9178 0350712 326.5618 298.3719 00.18648389    00

# Worst residual: 17.65 km
# MJD 57914.000000 (2017 Jun 10  0:00)
S510923
1 99999U 00000    17161.49919926  .00000000  00000-0  00000-0 0    03
2 99999 037.7402 351.8813 0337598 328.6265 003.5756 00.18697926    00

# Worst residual: 14.59 km
# MJD 57915.000000 (2017 Jun 11  0:00)
S510923
1 99999U 00000    17162.49919926  .00000000  00000-0  00000-0 0    04
2 99999 037.7371 351.8654 0325711 331.4167 068.3112 00.18702498    01

# Worst residual: 3.90 km
# MJD 57916.000000 (2017 Jun 12  0:00)
S510923
1 99999U 00000    17163.49919926  .00000000  00000-0  00000-0 0    05
2 99999 037.7354 351.8572 0318202 333.4047 133.6258 00.18669278    02

# Worst residual: 11.83 km
# MJD 57917.000000 (2017 Jun 13  0:00)
S510923
1 99999U 00000    17164.49919926  .00000000  00000-0  00000-0 0    06
2 99999 037.7297 351.8465 0324069 332.1814 202.1394 00.18689282    05

# Worst residual: 15.48 km
# MJD 57918.000000 (2017 Jun 14  0:00)
S510923
1 99999U 00000    17165.49919926  .00000000  00000-0  00000-0 0    07
2 99999 037.7294 351.8329 0339009 331.2039 270.5762 00.18699377    04

# Worst residual: 12.24 km
# MJD 57919.000000 (2017 Jun 15  0:00)
S510923
1 99999U 00000    17166.49919926  .00000000  00000-0  00000-0 0    08
2 99999 037.7273 351.8224 0358700 330.7274 338.4429 00.18661571    08

# Worst residual: 13.48 km
# MJD 57920.000000 (2017 Jun 16  0:00)
S510923
1 99999U 00000    17167.49919926  .00000000  00000-0  00000-0 0    09
2 99999 037.7244 351.8063 0356876 330.6491 045.6958 00.18667573    01

# Worst residual: 13.07 km
# MJD 57921.000000 (2017 Jun 17  0:00)
S510923
1 99999U 00000    17168.49919926  .00000000  00000-0  00000-0 0    00
2 99999 037.7227 351.7937 0338894 329.1397 114.6320 00.18704505    06

# Worst residual: 7.58 km
# MJD 57922.000000 (2017 Jun 18  0:00)
S510923
1 99999U 00000    17169.49919926  .00000000  00000-0  00000-0 0    01
2 99999 037.7191 351.7826 0329267 328.1236 183.0578 00.18693577    09

# Worst residual: 3.65 km
# MJD 57923.000000 (2017 Jun 19  0:00)
S510923
1 99999U 00000    17170.49919926  .00000000  00000-0  00000-0 0    03
2 99999 037.7205 351.7674 0328221 326.9685 251.5255 00.18681449    07

# Worst residual: 8.54 km
# MJD 57924.000000 (2017 Jun 20  0:00)
S510923
1 99999U 00000    17171.49919926  .00000000  00000-0  00000-0 0    04
2 99999 037.7205 351.7589 0327203 327.9985 317.7543 00.18698868    03

# Worst residual: 12.03 km
# MJD 57925.000000 (2017 Jun 21  0:00)
S510923
1 99999U 00000    17172.49919926  .00000000  00000-0  00000-0 0    05
2 99999 037.7187 351.7419 0316794 330.2656 022.9656 00.18736125    08

# Worst residual: 16.39 km
# MJD 57926.000000 (2017 Jun 22  0:00)
S510923
1 99999U 00000    17173.49919926  .00000000  00000-0  00000-0 0    06
2 99999 037.6999 351.7053 0327304 334.6683 085.9400 00.18666349    05

# Worst residual: 15.26 km
# MJD 57927.000000 (2017 Jun 23  0:00)
S510923
1 99999U 00000    17174.49919926  .00000000  00000-0  00000-0 0    07
2 99999 037.6986 351.6137 0344843 334.6377 153.0874 00.18689178    07

# Worst residual: 15.71 km
# MJD 57928.000000 (2017 Jun 24  0:00)
S510923
1 99999U 00000    17175.49919926  .00000000  00000-0  00000-0 0    08
2 99999 037.7026 351.5889 0363789 332.6511 222.5995 00.18736506    08

# Worst residual: 12.01 km
# MJD 57929.000000 (2017 Jun 25  0:00)
S510923
1 99999U 00000    17176.49919926  .00000000  00000-0  00000-0 0    09
2 99999 037.6996 351.5740 0370283 329.3138 293.4133 00.18682761    08

# Worst residual: 8.15 km
# MJD 57930.000000 (2017 Jun 26  0:00)
S510923
1 99999U 00000    17177.49919926  .00000000  00000-0  00000-0 0    00
2 99999 037.6948 351.5666 0374522 328.9622 000.9745 00.18667476    01

# Worst residual: 13.97 km
# MJD 57931.000000 (2017 Jun 27  0:00)
S510923
1 99999U 00000    17178.49919926  .00000000  00000-0  00000-0 0    01
2 99999 037.6906 351.5514 0356603 329.0576 068.2626 00.18710233    02
